HORUS 1                 
1 55690U 23025A   26066.60569892  .00010042  00000+0  42305-3 0  9995
2 55690  97.3536 143.2993 0002993 128.8287 231.3218 15.23532404168587
HORUS 2                 
1 55844U 23032A   26066.64055635  .00010003  00000+0  42107-3 0  9990
2 55844  97.3602 144.0461 0003412 109.2550 250.9057 15.23560948166023
GLOBAL-19               
1 55982U 23041B   26066.10662891  .00020369  00000+0  53653-3 0  9996
2 55982  42.0016  77.4952 0001896 330.7380  29.3353 15.38094031166200
BRO-9                   
1 56185U 23054H   26066.65318795  .00065708  00000+0  63710-3 0  9998
2 56185  97.3054 339.4420 0005188  67.5821 292.5989 15.66149358163070
ION SCV-010             
1 56192U 23054Q   26066.63463728  .00008343  00000+0  33463-3 0  9995
2 56192  97.3911 317.4231 0012480 196.2211 163.8629 15.25180420160711
GHOST-1                 
1 56195U 23054T   26066.51279076  .00182316  00000+0  86674-3 0  9991
2 56195  97.3023 343.3499 0005188  68.6259 291.5563 15.82399674163303
TELEOS-2                
1 56310U 23057C   26066.64618431  .00000868  00000+0  15492-4 0  9991
2 56310   9.9874 223.5229 0000816 289.5790  70.4335 14.96372122157567
SNIPE 4                 
1 56744U 23072B   26066.61017529  .00029185  00000+0  77747-3 0  9990
2 56744  97.5352 269.6396 0005569 339.6058  20.4963 15.38125569154479
SNIPE 2                 
1 56745U 23072C   26066.65553552  .00036780  00000+0  87409-3 0  9991
2 56745  97.5354 272.1022 0005083  12.1984 347.9385 15.41566679154570
2023-072G               
1 56749U 23072G   26066.62375105  .00039125  00000+0  83373-3 0  9990
2 56749  97.5016 270.7996 0004295   3.1154 357.0120 15.44815121154757
OTTER PUP               
1 56933U 23084B   26066.39579169  .00202341  00000+0  10001-2 0  9997
2 56933  97.5759 222.0432 0004147 247.4976 112.5853 15.81509323153135
GEISAT PRECURSOR        
1 56934U 23084C   26066.58105132  .00013216  00000+0  41676-3 0  9998
2 56934  97.6054 204.4100 0005309 354.8523   5.2663 15.32998192151950
BLACKJACK ACES-3        
1 56950U 23084U   26066.37332683  .00011180  00000+0  51490-3 0  9999
2 56950  97.6037 200.8565 0003419  21.7804 338.3576 15.20465069151712
BLACKJACK ACES-2        
1 56955U 23084Z   26066.64232389  .00014927  00000+0  68791-3 0  9990
2 56955  97.6034 201.2164 0000701  38.0997 322.0287 15.20375165151760
BLACKJACK ACES-1        
1 56956U 23084AA  26066.36736602  .00015244  00000+0  70034-3 0  9993
2 56956  97.6017 200.7270 0001015  69.8380 290.2964 15.20477948101441
ION SCV-011             
1 56957U 23084AB  26066.45224944  .00009199  00000+0  34250-3 0  9997
2 56957  98.1350 244.3908 0008037  38.6498 321.5313 15.27711911150274
