[{"OBJECT_NAME":"HORUS 1","OBJECT_ID":"2023-025A","EPOCH":"2026-03-07T14:32:12.386688","MEAN_MOTION":15.23532404,"ECCENTRICITY":0.00029935,"INCLINATION":97.3536,"RA_OF_ASC_NODE":143.2993,"ARG_OF_PERICENTER":128.8287,"MEAN_ANOMALY":231.3218,"EPHEMERIS_TYPE":0,"CLASSIFICATION_TYPE":"U","NORAD_CAT_ID":55690,"ELEMENT_SET_NO":999,"REV_AT_EPOCH":16858,"BSTAR":0.00042305035,"MEAN_MOTION_DOT":0.00010042,"MEAN_MOTION_DDOT":0},{"OBJECT_NAME":"HORUS 2","OBJECT_ID":"2023-032A","EPOCH":"2026-03-07T15:22:24.068640","MEAN_MOTION":15.23560948,"ECCENTRICITY":0.00034122,"INCLINATION":97.3602,"RA_OF_ASC_NODE":144.0461,"ARG_OF_PERICENTER":109.255,"MEAN_ANOMALY":250.9057,"EPHEMERIS_TYPE":0,"CLASSIFICATION_TYPE":"U","NORAD_CAT_ID":55844,"ELEMENT_SET_NO":999,"REV_AT_EPOCH":16602,"BSTAR":0.00042106736,"MEAN_MOTION_DOT":0.00010003,"MEAN_MOTION_DDOT":0},{"OBJECT_NAME":"GLOBAL-19","OBJECT_ID":"2023-041B","EPOCH":"2026-03-07T02:33:32.737824","MEAN_MOTION":15.38094031,"ECCENTRICITY":0.0001896,"INCLINATION":42.0016,"RA_OF_ASC_NODE":77.4952,"ARG_OF_PERICENTER":330.738,"MEAN_ANOMALY":29.3353,"EPHEMERIS_TYPE":0,"CLASSIFICATION_TYPE":"U","NORAD_CAT_ID":55982,"ELEMENT_SET_NO":999,"REV_AT_EPOCH":16620,"BSTAR":0.00053653463,"MEAN_MOTION_DOT":0.00020369,"MEAN_MOTION_DDOT":0},{"OBJECT_NAME":"BRO-9","OBJECT_ID":"2023-054H","EPOCH":"2026-03-07T15:40:35.438880","MEAN_MOTION":15.66149358,"ECCENTRICITY":0.00051883,"INCLINATION":97.3054,"RA_OF_ASC_NODE":339.442,"ARG_OF_PERICENTER":67.5821,"MEAN_ANOMALY":292.5989,"EPHEMERIS_TYPE":0,"CLASSIFICATION_TYPE":"U","NORAD_CAT_ID":56185,"ELEMENT_SET_NO":999,"REV_AT_EPOCH":16307,"BSTAR":0.00063709859,"MEAN_MOTION_DOT":0.00065708,"MEAN_MOTION_DDOT":0},{"OBJECT_NAME":"ION SCV-010","OBJECT_ID":"2023-054Q","EPOCH":"2026-03-07T15:13:52.660992","MEAN_MOTION":15.2518042,"ECCENTRICITY":0.001248,"INCLINATION":97.3911,"RA_OF_ASC_NODE":317.4231,"ARG_OF_PERICENTER":196.2211,"MEAN_ANOMALY":163.8629,"EPHEMERIS_TYPE":0,"CLASSIFICATION_TYPE":"U","NORAD_CAT_ID":56192,"ELEMENT_SET_NO":999,"REV_AT_EPOCH":16071,"BSTAR":0.00033463428,"MEAN_MOTION_DOT":8.343e-5,"MEAN_MOTION_DDOT":0},{"OBJECT_NAME":"GHOST-1","OBJECT_ID":"2023-054T","EPOCH":"2026-03-07T12:18:25.121664","MEAN_MOTION":15.82399674,"ECCENTRICITY":0.00051888,"INCLINATION":97.3023,"RA_OF_ASC_NODE":343.3499,"ARG_OF_PERICENTER":68.6259,"MEAN_ANOMALY":291.5563,"EPHEMERIS_TYPE":0,"CLASSIFICATION_TYPE":"U","NORAD_CAT_ID":56195,"ELEMENT_SET_NO":999,"REV_AT_EPOCH":16330,"BSTAR":0.00086673547,"MEAN_MOTION_DOT":0.00182316,"MEAN_MOTION_DDOT":0},{"OBJECT_NAME":"TELEOS-2","OBJECT_ID":"2023-057C","EPOCH":"2026-03-07T15:30:30.324384","MEAN_MOTION":14.96372122,"ECCENTRICITY":8.166e-5,"INCLINATION":9.9874,"RA_OF_ASC_NODE":223.5229,"ARG_OF_PERICENTER":289.579,"MEAN_ANOMALY":70.4335,"EPHEMERIS_TYPE":0,"CLASSIFICATION_TYPE":"U","NORAD_CAT_ID":56310,"ELEMENT_SET_NO":999,"REV_AT_EPOCH":15756,"BSTAR":1.5491546e-5,"MEAN_MOTION_DOT":8.68e-6,"MEAN_MOTION_DDOT":0},{"OBJECT_NAME":"SNIPE 4","OBJECT_ID":"2023-072B","EPOCH":"2026-03-07T14:38:39.145056","MEAN_MOTION":15.38125569,"ECCENTRICITY":0.00055691,"INCLINATION":97.5352,"RA_OF_ASC_NODE":269.6396,"ARG_OF_PERICENTER":339.6058,"MEAN_ANOMALY":20.4963,"EPHEMERIS_TYPE":0,"CLASSIFICATION_TYPE":"U","NORAD_CAT_ID":56744,"ELEMENT_SET_NO":999,"REV_AT_EPOCH":15447,"BSTAR":0.00077746988,"MEAN_MOTION_DOT":0.00029185,"MEAN_MOTION_DDOT":0},{"OBJECT_NAME":"SNIPE 2","OBJECT_ID":"2023-072C","EPOCH":"2026-03-07T15:43:58.268928","MEAN_MOTION":15.41566679,"ECCENTRICITY":0.00050836,"INCLINATION":97.5354,"RA_OF_ASC_NODE":272.1022,"ARG_OF_PERICENTER":12.1984,"MEAN_ANOMALY":347.9385,"EPHEMERIS_TYPE":0,"CLASSIFICATION_TYPE":"U","NORAD_CAT_ID":56745,"ELEMENT_SET_NO":999,"REV_AT_EPOCH":15457,"BSTAR":0.00087409251,"MEAN_MOTION_DOT":0.0003678,"MEAN_MOTION_DDOT":0},{"OBJECT_NAME":"2023-072G","OBJECT_ID":"2023-072G","EPOCH":"2026-03-07T14:58:12.090720","MEAN_MOTION":15.44815121,"ECCENTRICITY":0.00042956,"INCLINATION":97.5016,"RA_OF_ASC_NODE":270.7996,"ARG_OF_PERICENTER":3.1154,"MEAN_ANOMALY":357.012,"EPHEMERIS_TYPE":0,"CLASSIFICATION_TYPE":"U","NORAD_CAT_ID":56749,"ELEMENT_SET_NO":999,"REV_AT_EPOCH":15475,"BSTAR":0.00083373003,"MEAN_MOTION_DOT":0.00039125,"MEAN_MOTION_DDOT":0},{"OBJECT_NAME":"OTTER PUP","OBJECT_ID":"2023-084B","EPOCH":"2026-03-07T09:29:56.402016","MEAN_MOTION":15.81509323,"ECCENTRICITY":0.00041479,"INCLINATION":97.5759,"RA_OF_ASC_NODE":222.0432,"ARG_OF_PERICENTER":247.4976,"MEAN_ANOMALY":112.5853,"EPHEMERIS_TYPE":0,"CLASSIFICATION_TYPE":"U","NORAD_CAT_ID":56933,"ELEMENT_SET_NO":999,"REV_AT_EPOCH":15313,"BSTAR":0.0010001006,"MEAN_MOTION_DOT":0.00202341,"MEAN_MOTION_DDOT":0},{"OBJECT_NAME":"GEISAT PRECURSOR","OBJECT_ID":"2023-084C","EPOCH":"2026-03-07T13:56:42.834048","MEAN_MOTION":15.32998192,"ECCENTRICITY":0.00053099,"INCLINATION":97.6054,"RA_OF_ASC_NODE":204.41,"ARG_OF_PERICENTER":354.8523,"MEAN_ANOMALY":5.2663,"EPHEMERIS_TYPE":0,"CLASSIFICATION_TYPE":"U","NORAD_CAT_ID":56934,"ELEMENT_SET_NO":999,"REV_AT_EPOCH":15195,"BSTAR":0.00041675585,"MEAN_MOTION_DOT":0.00013216,"MEAN_MOTION_DDOT":0},{"OBJECT_NAME":"BLACKJACK ACES-3","OBJECT_ID":"2023-084U","EPOCH":"2026-03-07T08:57:35.438112","MEAN_MOTION":15.20465069,"ECCENTRICITY":0.00034196,"INCLINATION":97.6037,"RA_OF_ASC_NODE":200.8565,"ARG_OF_PERICENTER":21.7804,"MEAN_ANOMALY":338.3576,"EPHEMERIS_TYPE":0,"CLASSIFICATION_TYPE":"U","NORAD_CAT_ID":56950,"ELEMENT_SET_NO":999,"REV_AT_EPOCH":15171,"BSTAR":0.00051490002,"MEAN_MOTION_DOT":0.0001118,"MEAN_MOTION_DDOT":0},{"OBJECT_NAME":"BLACKJACK ACES-2","OBJECT_ID":"2023-084Z","EPOCH":"2026-03-07T15:24:56.784096","MEAN_MOTION":15.20375165,"ECCENTRICITY":7.012e-5,"INCLINATION":97.6034,"RA_OF_ASC_NODE":201.2164,"ARG_OF_PERICENTER":38.0997,"MEAN_ANOMALY":322.0287,"EPHEMERIS_TYPE":0,"CLASSIFICATION_TYPE":"U","NORAD_CAT_ID":56955,"ELEMENT_SET_NO":999,"REV_AT_EPOCH":15176,"BSTAR":0.00068791073,"MEAN_MOTION_DOT":0.00014927,"MEAN_MOTION_DDOT":0},{"OBJECT_NAME":"BLACKJACK ACES-1","OBJECT_ID":"2023-084AA","EPOCH":"2026-03-07T08:49:00.424128","MEAN_MOTION":15.20477948,"ECCENTRICITY":0.00010154,"INCLINATION":97.6017,"RA_OF_ASC_NODE":200.727,"ARG_OF_PERICENTER":69.838,"MEAN_ANOMALY":290.2964,"EPHEMERIS_TYPE":0,"CLASSIFICATION_TYPE":"U","NORAD_CAT_ID":56956,"ELEMENT_SET_NO":999,"REV_AT_EPOCH":10144,"BSTAR":0.00070033659,"MEAN_MOTION_DOT":0.00015244,"MEAN_MOTION_DDOT":0},{"OBJECT_NAME":"ION SCV-011","OBJECT_ID":"2023-084AB","EPOCH":"2026-03-07T10:51:14.351616","MEAN_MOTION":15.27711911,"ECCENTRICITY":0.00080377,"INCLINATION":98.135,"RA_OF_ASC_NODE":244.3908,"ARG_OF_PERICENTER":38.6498,"MEAN_ANOMALY":321.5313,"EPHEMERIS_TYPE":0,"CLASSIFICATION_TYPE":"U","NORAD_CAT_ID":56957,"ELEMENT_SET_NO":999,"REV_AT_EPOCH":15027,"BSTAR":0.00034249781,"MEAN_MOTION_DOT":9.199e-5,"MEAN_MOTION_DDOT":0}]
